STARLINK-1793           
1 46694U 20073AA  23046.69920386  .00002502  00000+0  18675-3 0  9997
2 46694  53.0528 200.4726 0000982  85.8767 274.2334 15.06404034128907
STARLINK-1795           
1 46696U 20073AC  23046.85032446  .00000960  00000+0  83308-4 0  9990
2 46696  53.0524 199.7931 0001336  80.5633 279.5507 15.06406025129409
STARLINK-1797           
1 46698U 20073AE  23046.77381787  .00001827  00000+0  14150-3 0  9999
2 46698  53.0518 220.1290 0001114  80.4298 279.6816 15.06405566128638
STARLINK-1799           
1 46699U 20073AF  23046.84480047  .00003351  00000+0  24369-3 0  9994
2 46699  53.0510 219.8198 0001135  82.1952 277.9165 15.06407029129086
STARLINK-1800           
1 46700U 20073AG  23046.91529605  .00003448  00000+0  25019-3 0  9999
2 46700  53.0506 234.4996 0001044  91.8490 268.2619 15.06409482128447
STARLINK-1801           
1 46701U 20073AH  23046.74896094  .00012217  00000+0  83717-3 0  9993
2 46701  53.0510 220.2499 0001402  73.8744 286.2399 15.06420345128631
STARLINK-1802           
1 46702U 20073AJ  23046.82821470  .00027846  00000+0  18798-2 0  9999
2 46702  53.0532 199.8904 0001262  84.4918 275.6215 15.06421895128925
STARLINK-1803           
1 46703U 20073AK  23046.85953758  .00011362  00000+0  77988-3 0  9991
2 46703  53.0534 219.7524 0001183  90.6208 269.4916 15.06425829129124
STARLINK-1804           
1 46704U 20073AL  23047.23735903 -.00012500  00000+0 -82066-3 0  9995
2 46704  53.0517 198.0608 0001755  63.6981 296.4188 15.06446786129464
STARLINK-1805           
1 46705U 20073AM  23047.25071525  .00002247  00000+0  16966-3 0  9992
2 46705  53.0514 232.9979 0000876  82.8530 277.2558 15.06403573128977
STARLINK-1807           
1 46706U 20073AN  23046.89271508  .00004494  00000+0  32031-3 0  9992
2 46706  53.0524 219.6056 0001337  76.7724 283.3414 15.06411434129130
STARLINK-1808           
1 46707U 20073AP  23046.68446384  .00002517  00000+0  18778-3 0  9992
2 46707  53.0515 200.5405 0000925  83.6529 276.4565 15.06399666128906
STARLINK-1810           
1 46709U 20073AR  23046.89319450  .00003452  00000+0  25047-3 0  9996
2 46709  53.0508 234.7286 0001103  92.5714 267.5401 15.06408563128435
STARLINK-1811           
1 46710U 20073AS  23046.77891619  .00009014  00000+0  62309-3 0  9999
2 46710  53.0495 235.1155 0001049  84.4656 275.6453 15.06408509128422
STARLINK-1813           
1 46711U 20073AT  23046.88534393  .00015109  00000+0  10305-2 0  9995
2 46711  53.0524 219.6364 0001209  91.2578 268.8549 15.06419479128655
STARLINK-1814           
1 46712U 20073AU  23046.59786147  .00001351  00000+0  10955-3 0  9996
2 46712  53.0515 221.0540 0001216  87.6190 272.4938 15.06401569128605
STARLINK-1815           
1 46713U 20073AV  23046.59689903  .00001144  00000+0  95670-4 0  9997
2 46713  53.0505 220.9257 0001175  87.6607 272.4517 15.06402617128603
STARLINK-1816           
1 46714U 20073AW  23046.85216955  .00006118  00000+0  42909-3 0  9992
2 46714  53.0532 219.7823 0000622 111.6605 248.4450 15.06412311128646
STARLINK-1817           
1 46715U 20073AX  23046.84848268  .00004294  00000+0  30690-3 0  9997
2 46715  53.0520 219.8044 0001221  98.0711 262.0417 15.06413167128647
STARLINK-1818           
1 46716U 20073AY  23046.66465558  .00000961  00000+0  83380-4 0  9997
2 46716  53.0513 235.6268 0001308  97.6767 262.4370 15.06399792128409
STARLINK-1820           
1 46717U 20073AZ  23047.26500556 -.00000330  00000+0 -32341-5 0  9997
2 46717  53.0515 217.9324 0001437 100.7786 259.3365 15.06401341129187
STARLINK-1821           
1 46718U 20073BA  23047.23871169 -.00002754  00000+0 -16610-3 0  9997
2 46718  53.0532 233.0447 0001359  87.3548 272.7597 15.06392992128974
STARLINK-1822           
1 46719U 20073BB  23046.89086863  .00002085  00000+0  15876-3 0  9996
2 46719  53.0484 199.6128 0001747  66.4920 293.6252 15.06410572129412
STARLINK-1825           
1 46722U 20073BE  23046.80102634  .00002976  00000+0  21860-3 0  9995
2 46722  53.0512 235.0177 0001390  94.4340 265.6808 15.06402190128421
STARLINK-1826           
1 46723U 20073BF  23046.69413861  .00005703  00000+0  40132-3 0  9994
2 46723  53.0498 195.4977 0000926  80.4034 279.7060 15.06409570128976
STARLINK-1828           
1 46725U 20073BH  23047.22860047  .00001551  00000+0  12296-3 0  9995
2 46725  53.0515 233.0978 0001034  74.7540 285.3563 15.06403255128972
STARLINK-1829           
1 46726U 20073BJ  23046.85491152  .00005622  00000+0  39585-3 0  9994
2 46726  53.0523 219.7656 0001213  91.1497 268.9631 15.06414259128642
STARLINK-1830           
1 46727U 20073BK  23046.87842401  .00005061  00000+0  35821-3 0  9990
2 46727  53.0510 194.6717 0001054  60.1658 299.9435 15.06419656129009
FLOCK 4V-22             
1 46735U 20061BL  23046.66211040  .00024818  00000+0  93228-3 0  9998
2 46735  97.3589 118.0583 0005235 352.7731   7.3430 15.27160071128768
FLOCK 4V-23             
1 46737U 20061BM  23047.19116334  .00027670  00000+0  10553-2 0  9997
2 46737  97.3664 119.2655 0002885 334.2127  25.8968 15.26643489128779
FLOCK 4V-24             
1 46738U 20061BN  23047.42124804  .00042463  00000+0  14587-2 0  9993
2 46738  97.3726 120.5983 0006351   2.1293 357.9934 15.29972156128394
STARLINK-1848           
1 46740U 20074B   23047.10420373  .00025140  00000+0  16990-2 0  9998
2 46740  53.0545 303.6556 0001277 101.1455 258.9677 15.06435386128160
STARLINK-1865           
1 46741U 20074C   23046.92221366  .00021496  00000+0  14568-2 0  9998
2 46741  53.0509 299.4775 0001192 109.2004 250.9114 15.06420150128207
STARLINK-1872           
1 46742U 20074D   23046.97945545  .00194725  00000+0  16690-2 0  9990
2 46742  53.0480 248.3986 0002383 222.9658 137.1172 15.68291678128933
STARLINK-1892           
1 46743U 20074E   23046.91482966  .00006722  00000+0  46937-3 0  9995
2 46743  53.0558 299.4980 0001309 100.8526 259.2610 15.06426910128222
STARLINK-1894           
1 46744U 20074F   23046.93232451  .00021311  00000+0  14448-2 0  9992
2 46744  53.0534 299.4191 0001232 124.6997 235.4109 15.06412010128205
STARLINK-1905           
1 46746U 20074H   23047.21339166  .00015133  00000+0  10317-2 0  9993
2 46746  53.0529 298.1658 0000967 105.9462 254.1634 15.06433860128261
STARLINK-1908           
1 46747U 20074J   23047.19495734  .00129327  00000+0  86434-2 0  9999
2 46747  53.0543 298.2446 0001456  59.0652 301.0480 15.05967972128264
STARLINK-1910           
1 46748U 20074K   23046.87057760  .00051101  00000+0  34148-2 0  9996
2 46748  53.0546 299.6994 0001245 124.8638 235.2468 15.06507832128194
STARLINK-1911           
1 46749U 20074L   23046.87798198  .00009193  00000+0  63507-3 0  9990
2 46749  53.0549 299.6775 0001314  88.0888 272.0252 15.06409519128193
STARLINK-1920           
1 46751U 20074N   23046.87429832  .00005379  00000+0  37967-3 0  9992
2 46751  53.0525 299.6931 0001229  83.7023 276.4106 15.06403609128204
STARLINK-1921           
1 46752U 20074P   23046.88535586  .00035639  00000+0  23978-2 0  9996
2 46752  53.0530 299.6422 0001353  80.1295 279.9847 15.06425064128216
STARLINK-1922           
1 46753U 20074Q   23046.91852926  .00022670  00000+0  15352-2 0  9999
2 46753  53.0528 299.4921 0001408  84.6891 275.4258 15.06417112128209
STARLINK-1923           
1 46754U 20074R   23046.92589865  .00005470  00000+0  38570-3 0  9997
2 46754  53.0530 299.4592 0001334  88.4708 271.6433 15.06409063128203
STARLINK-1924           
1 46755U 20074S   23046.93096698  .00007707  00000+0  53558-3 0  9994
2 46755  53.0542 304.4326 0001314  97.1207 262.9932 15.06410941128134
STARLINK-1925           
1 46756U 20074T   23047.02684699  .00010284  00000+0  70788-3 0  9998
2 46756  53.0558 304.3930 0001348  94.4320 265.6823 15.06420326128165
STARLINK-1926           
1 46757U 20074U   23046.90888495  .00009038  00000+0  62467-3 0  9995
2 46757  53.0541 304.7726 0001659  99.8805 260.2372 15.06410432128120
STARLINK-1928           
1 46758U 20074V   23046.91253846  .00017672  00000+0  12017-2 0  9991
2 46758  53.0561 304.5118 0001532  97.6814 262.4349 15.06419439128137
STARLINK-1833           
1 46759U 20074W   23046.97427110  .00001182  00000+0  98188-4 0  9999
2 46759  53.0542 314.2484 0001073  92.6868 267.4244 15.06407179127737
STARLINK-1896           
1 46760U 20074X   23046.98534944 -.00006653  00000+0 -42852-3 0  9992
2 46760  53.0523 314.1971 0001702 113.3403 246.7765 15.06368366128028
STARLINK-1903           
1 46764U 20074AB  23046.91161516  .00005246  00000+0  37078-3 0  9999
2 46764  53.0531 314.5244 0000697  73.8216 286.2850 15.06402463127998
STARLINK-1906           
1 46765U 20074AC  23046.90056089  .00008993  00000+0  62176-3 0  9996
2 46765  53.0558 314.5633 0001071  69.7977 290.3127 15.06403805127988
STARLINK-1916           
1 46766U 20074AD  23046.89318478  .00016606  00000+0  11307-2 0  9997
2 46766  53.0529 314.6038 0000908  97.7042 262.4050 15.06412956127992
STARLINK-1917           
1 46767U 20074AE  23047.05535961  .00017270  00000+0  11746-2 0  9990
2 46767  53.0541 313.8677 0001134 113.4905 246.6203 15.06425947128026
STARLINK-1918           
1 46768U 20074AF  23046.99272202  .00016979  00000+0  11557-2 0  9994
2 46768  53.0556 314.1561 0001299  86.5538 273.5600 15.06408858128025
STARLINK-1932           
1 46770U 20074AH  23046.93380492  .00024735  00000+0  16730-2 0  9999
2 46770  53.0539 314.9772 0001359 103.7619 256.3521 15.06413970127986
STARLINK-1936           
1 46772U 20074AK  23046.93278695  .00021424  00000+0  14519-2 0  9997
2 46772  53.0530 314.4183 0001314 132.0221 228.0880 15.06423340127992
STARLINK-1939           
1 46774U 20074AM  23046.87973621  .00233262  00000+0  56429-2 0  9994
2 46774  53.0506 278.8304 0006380 196.8763 163.2029 15.39725044128507
STARLINK-1798           
1 46779U 20074AS  23046.89733460  .00003931  00000+0  28259-3 0  9995
2 46779  53.0527 289.5856 0001217  87.9260 272.1868 15.06406979128331
